[Satellite]
VERSION=1.1
NAME=SL-16 R/B
NICKNAME=SL-16 R/B
TLE1=1 22566U 93016B   19316.80076227  .00000259  00000-0  15840-3 0  9999
TLE2=2 22566  71.0091  22.6291 0012296 242.0888 117.8990 14.14959577375557
STATUS=0
